IRIDIUM 33 DEB          
1 35488U 97051QJ  26093.16798243  .00019813  00000+0  22560-2 0  9998
2 35488  86.3213 249.3667 0025072   8.4925 351.6719 14.85861175899198
IRIDIUM 33 DEB          
1 35616U 97051QN  26093.00123014  .00025368  00000+0  29330-2 0  9996
2 35616  86.3487 294.8311 0009906 138.6050 221.5927 14.85408907892243
IRIDIUM 33 DEB          
1 35618U 97051QQ  26090.32917403  .00001984  00000+0  47527-3 0  9990
2 35618  86.3354 306.0121 0029124  17.4199 342.7999 14.52807968669707
IRIDIUM 33 DEB          
1 35620U 97051QS  26093.17227147  .00014934  00000+0  41718-2 0  9992
2 35620  86.3903 170.3667 0132348 248.6633 110.0398 14.41062770615691
IRIDIUM 33 DEB          
1 35622U 97051QU  26093.61749348  .00075942  00000+0  38411-2 0  9997
2 35622  86.1924 207.8616 0008661 208.3336 214.4164 15.16679750890495
IRIDIUM 33 DEB          
1 35628U 97051RA  26092.36565905  .00009120  00000+0  15304-2 0  9990
2 35628  86.3558 319.6752 0010215 320.3322  39.7146 14.69576553880702
IRIDIUM 33 DEB          
1 35631U 97051RD  26093.66258222  .00001705  00000+0  45598-3 0  9999
2 35631  86.3691 332.7959 0018786 104.9103 311.4138 14.47695741888169
IRIDIUM 33 DEB          
1 35680U 97051RJ  26090.43695588  .00006338  00000+0  25231-2 0  9993
2 35680  86.1058 333.3438 0149317 294.8095 246.1370 14.22612925622457
IRIDIUM 33 DEB          
1 35744U 97051RX  26091.93494960  .00007678  00000+0  11959-2 0  9991
2 35744  86.3228 275.5653 0020833 172.9651 187.1863 14.72708679889521
IRIDIUM 33 DEB          
1 35797U 97051SF  26093.26274534  .00027844  00000+0  31364-2 0  9999
2 35797  86.3298 278.5703 0012597 123.7058 236.5370 14.86445536889952
IRIDIUM 33 DEB          
1 35806U 97051SQ  26087.41700966  .00004716  00000+0  10059-2 0  9994
2 35806  86.3462 334.0677 0015971  72.6099 287.6855 14.58659928878640
IRIDIUM 33 DEB          
1 35809U 97051ST  26091.26711666  .00012675  00000+0  17346-2 0  9993
2 35809  86.3216 285.3551 0010460 219.8511 140.1942 14.78394809884240
IRIDIUM 33 DEB          
1 35846U 97051SW  26094.21241749  .00003218  00000+0  94085-3 0  9991
2 35846  86.3803  10.8252 0018119 155.6074 204.5989 14.43670351729517
IRIDIUM 33 DEB          
1 35848U 97051SY  26091.92495115  .00011647  00000+0  14715-2 0  9992
2 35848  86.3902 326.4626 0007335 163.4408 196.7055 14.81777012683201
IRIDIUM 33 DEB          
1 35850U 97051TA  26089.28458259  .00013568  00000+0  17139-2 0  9996
2 35850  86.3449 295.2049 0009133 172.3838 187.7525 14.81777826729482
IRIDIUM 33 DEB          
1 35915U 97051TY  26082.86992109  .00012841  00000+0  15384-2 0  9995
2 35915  86.3396 296.6253 0009705 195.9754 164.1165 14.83975606 95843
IRIDIUM 33 DEB          
1 35918U 97051UB  26091.55594726  .00004293  00000+0  10470-2 0  9990
2 35918  86.4051  28.6252 0026003 157.4201  20.4294 14.52281649868003
IRIDIUM 33 DEB          
1 35929U 97051UN  26093.71090570  .00072023  00000+0  41458-2 0  9996
2 35929  86.3398 259.2114 0012987 332.4660  27.5889 15.12052380894661
IRIDIUM 33 DEB          
1 36011U 97051US  26092.46423228  .00001815  00000+0  54953-3 0  9996
2 36011  86.3450 347.8727 0016883 211.8744 329.2715 14.41749682661356
IRIDIUM 33 DEB          
1 36012U 97051UT  26094.18399670  .00007287  00000+0  26625-2 0  9994
2 36012  86.4388 262.1106 0215199 263.2585  94.4074 14.20836964670809
IRIDIUM 33 DEB          
1 36028U 97051VK  26089.69582518  .00038639  00000+0  29684-2 0  9999
2 36028  86.3177 255.6584 0014691  17.8833 342.2914 15.01489736887416
IRIDIUM 33 DEB          
1 36080U 97051VM  26088.38131919  .00001976  00000+0  53591-3 0  9996
2 36080  86.3181 321.5254 0017617 171.4049 188.7459 14.47123208489562
IRIDIUM 33 DEB          
1 36083U 97051VQ  26092.42935390  .00002119  00000+0  61630-3 0  9997
2 36083  86.3474 346.5042 0024570 217.2187 142.7312 14.43704142870469
IRIDIUM 33 DEB          
1 36390U 97051VU  26088.17281346  .00011185  00000+0  16396-2 0  9991
2 36390  86.2880 250.5272 0030012 157.4006 202.8542 14.75182873678300
IRIDIUM 33 DEB          
1 36483U 97051VZ  26092.47688977  .00002135  00000+0  59039-3 0  9990
2 36483  86.3844   5.0774 0010856 113.6210 246.6133 14.46280844667461
IRIDIUM 33 DEB          
1 36490U 97051WG  26092.35092249  .00014780  00000+0  19780-2 0  9993
2 36490  86.3642 320.4572 0004829  51.8952 308.2704 14.79369642881180
IRIDIUM 33 DEB          
1 36493U 97051WK  26092.90372468  .00010199  00000+0  18136-2 0  9995
2 36493  86.3567 322.2394 0010002 342.2696  17.8167 14.67022562761472
IRIDIUM 33 DEB          
1 37548U 97051XH  26093.00092073  .00004755  00000+0  11608-2 0  9998
2 37548  86.3552 354.9233 0023750 174.7918 185.3540 14.52297087671466
IRIDIUM 33 DEB          
1 37550U 97051XK  26092.91089017  .00011964  00000+0  20275-2 0  9994
2 37550  86.3786 334.5454 0005358  84.6881 275.4946 14.69178258879646
IRIDIUM 33 DEB          
1 37562U 97051XX  26081.53109323  .00005460  00000+0  11883-2 0  9995
2 37562  86.3789   0.0548 0025538 124.1616  54.2204 14.57637636877813
IRIDIUM 33 DEB          
1 37565U 97051YA  26088.92873342  .00002147  00000+0  52487-3 0  9992
2 37565  86.3497 322.8879 0014900  81.9377 278.3519 14.52093593673926
IRIDIUM 33 DEB          
1 38017U 97051YD  26092.49680326  .00007197  00000+0  16766-2 0  9999
2 38017  86.3375 117.9168 0090133  97.0835 264.0630 14.52206042630088
IRIDIUM 33 DEB          
1 38022U 97051YJ  26088.93719374  .00004298  00000+0  12818-2 0  9998
2 38022  86.2705 329.4827 0046466  55.4214 305.1357 14.42234802707386
IRIDIUM 33 DEB          
1 38028U 97051YQ  26093.34111202  .00002274  00000+0  62204-3 0  9998
2 38028  86.3240 311.7630 0029771 110.1448 250.2962 14.46584470671083
IRIDIUM 33 DEB          
1 38228U 97051ZC  26093.72232634  .00001266  00000+0  49723-3 0  9996
2 38228  86.2996   0.8629 0063004 188.4831 200.4838 14.27503912863798
IRIDIUM 33 DEB          
1 38241U 97051ZR  26093.30380294  .00004592  00000+0  10458-2 0  9998
2 38241  86.3179 301.3571 0006628  55.1700 305.0130 14.55696176618236
IRIDIUM 33 DEB          
1 38474U 97051AAB 26092.36709420  .00002515  00000+0  62381-3 0  9993
2 38474  86.3424 321.8519 0027811  76.4852 283.9450 14.51310033669222
IRIDIUM 33 DEB          
1 39777U 97051AAJ 26092.51286385  .00014627  00000+0  29964-2 0  9993
2 39777  85.9587 121.1570 0059867 169.1225 191.1296 14.59526167617992
IRIDIUM 33 DEB          
1 39778U 97051AAK 26092.99711820  .00006514  00000+0  14972-2 0  9992
2 39778  86.3826 354.9021 0008630  25.7197 334.4438 14.55316688623109
IRIDIUM 33 DEB          
1 39781U 97051AAN 26093.09921048  .00027129  00000+0  10259-1 0  9991
2 39781  86.3754 212.0263 0168544 273.7467 268.6523 14.23562901 96890
IRIDIUM 33 DEB          
1 40996U 97051ABJ 26093.05178121  .00081518  00000+0  54290-2 0  9999
2 40996  86.3504 308.9742 0007641  18.0665 134.8180 15.06715966641588
IRIDIUM 33 DEB          
1 40998U 97051ABL 26079.55472515  .00001671  00000+0  46851-3 0  9991
2 40998  86.3880  11.8556 0009585 105.6376  20.7682 14.45504117 80944
IRIDIUM 33 DEB          
1 46435U 97051ABN 26092.40415951  .00020647  00000+0  54996-2 0  9995
2 46435  86.2821 146.0705 0191380 270.4412 103.8513 14.38045517 95043
IRIDIUM 33 DEB          
1 46734U 97051ABR 26084.40530841  .00002483  00000+0  73414-3 0  9999
2 46734  86.2626 317.7811 0040390 356.4504 184.0485 14.42665972644906
IRIDIUM 33 DEB          
1 46965U 97051ABX 26093.53201685  .00005178  00000+0  10446-2 0  9999
2 46965  86.3292 291.0853 0017442 310.3961  78.8466 14.61214732639009
IRIDIUM 33 DEB          
1 46971U 97051ACD 26093.25475774  .00058321  00000+0  39692-2 0  9999
2 46971  86.3244 280.2657 0005482 258.8751 226.8335 15.06035361659044
IRIDIUM 33 DEB          
1 46972U 97051ACE 26080.03549722  .00001845  00000+0  45931-3 0  9990
2 46972  86.3927 357.0817 0010612 126.4910 247.8233 14.51201793629985
IRIDIUM 33 DEB          
1 46974U 97051ACG 26093.63172875  .00016740  00000+0  43674-2 0  9994
2 46974  86.2973  56.2944 0088077 172.4204 187.8355 14.47070736591255
